{
	"type": "FeatureCollection",
	"generator": "overpass-turbo",
	"copyright": "The data included in this document is from www.openstreetmap.org. The data is made available under ODbL.",
	"timestamp": "2026-06-27T14:53:49Z",
	"features": [
		{
			"type": "Feature",
			"properties": {
				"name": "Desa Cipicung",
				"village_code": "32.14.05.2005",
				"district": "Sukatani",
				"regency": "Purwakarta",
				"province": "Jawa Barat",
				"source": "Badan Informasi Geospasial (BIG), peta RBI skala 1:10.000"
			},
			"geometry": {
				"type": "Polygon",
				"coordinates": [
					[
						[107.385483, -6.601209],
						[107.385468, -6.601261],
						[107.385441, -6.601353],
						[107.385443, -6.60174],
						[107.385451, -6.601947],
						[107.385464, -6.602295],
						[107.385478, -6.602718],
						[107.385484, -6.602921],
						[107.385508, -6.603061],
						[107.385539, -6.603238],
						[107.385566, -6.60334],
						[107.385619, -6.603546],
						[107.385807, -6.604108],
						[107.385883, -6.604093],
						[107.385981, -6.604079],
						[107.386266, -6.604106],
						[107.386495, -6.604147],
						[107.386966, -6.604131],
						[107.387309, -6.604086],
						[107.387812, -6.604684],
						[107.388171, -6.605196],
						[107.388401, -6.605524],
						[107.388173, -6.605525],
						[107.387687, -6.605484],
						[107.387273, -6.605486],
						[107.387018, -6.60593],
						[107.38682, -6.606241],
						[107.386794, -6.60631],
						[107.386823, -6.606403],
						[107.386904, -6.60672],
						[107.386923, -6.606993],
						[107.386924, -6.607167],
						[107.386924, -6.607167],
						[107.386816, -6.607303],
						[107.386737, -6.607402],
						[107.38653, -6.607923],
						[107.386422, -6.608194],
						[107.386431, -6.608229],
						[107.386499, -6.608489],
						[107.386528, -6.608569],
						[107.386528, -6.608569],
						[107.38702, -6.608657],
						[107.38696, -6.608841],
						[107.387198, -6.608889],
						[107.387172, -6.609199],
						[107.387606, -6.609427],
						[107.387621, -6.609669],
						[107.387614, -6.609786],
						[107.387606, -6.609909],
						[107.387568, -6.610484],
						[107.387529, -6.610592],
						[107.387512, -6.610641],
						[107.387598, -6.610769],
						[107.38807, -6.611219],
						[107.387877, -6.611409],
						[107.387748, -6.611475],
						[107.387551, -6.611533],
						[107.387458, -6.611621],
						[107.387425, -6.611795],
						[107.387358, -6.611821],
						[107.387314, -6.611833],
						[107.387876, -6.612068],
						[107.387877, -6.612074],
						[107.387905, -6.612225],
						[107.388106, -6.612495],
						[107.388136, -6.612556],
						[107.388162, -6.612611],
						[107.388493, -6.612973],
						[107.388435, -6.613022],
						[107.388667, -6.613261],
						[107.388815, -6.613412],
						[107.388782, -6.61347],
						[107.388689, -6.613633],
						[107.388649, -6.613685],
						[107.388598, -6.613751],
						[107.388574, -6.613783],
						[107.388482, -6.613828],
						[107.388438, -6.613849],
						[107.388356, -6.613889],
						[107.387917, -6.614155],
						[107.387766, -6.614247],
						[107.387624, -6.61431],
						[107.387603, -6.614319],
						[107.387436, -6.614308],
						[107.38731, -6.6143],
						[107.387213, -6.614302],
						[107.387028, -6.614307],
						[107.386876, -6.614311],
						[107.386822, -6.614519],
						[107.38679, -6.61466],
						[107.386798, -6.614936],
						[107.3868, -6.61499],
						[107.386809, -6.615071],
						[107.38683, -6.615256],
						[107.38685, -6.61543],
						[107.386823, -6.61559],
						[107.38682, -6.61561],
						[107.386747, -6.615678],
						[107.38652, -6.61589],
						[107.386374, -6.616036],
						[107.386372, -6.616038],
						[107.386337, -6.616126],
						[107.386294, -6.616233],
						[107.386116, -6.616056],
						[107.386072, -6.616013],
						[107.385767, -6.615847],
						[107.385333, -6.615667],
						[107.384747, -6.615457],
						[107.384354, -6.615355],
						[107.384354, -6.615355],
						[107.383811, -6.615196],
						[107.383217, -6.615062],
						[107.383014, -6.615041],
						[107.382807, -6.615019],
						[107.382442, -6.615013],
						[107.382323, -6.615026],
						[107.382024, -6.61506],
						[107.381714, -6.61516],
						[107.381569, -6.615207],
						[107.381167, -6.615376],
						[107.380742, -6.615545],
						[107.380696, -6.615551],
						[107.38037, -6.615592],
						[107.379944, -6.615594],
						[107.379374, -6.615521],
						[107.379005, -6.615441],
						[107.378963, -6.615432],
						[107.378513, -6.615199],
						[107.378111, -6.614987],
						[107.377738, -6.614956],
						[107.377467, -6.614982],
						[107.377121, -6.615015],
						[107.376903, -6.615034],
						[107.376453, -6.614976],
						[107.376378, -6.614957],
						[107.37594, -6.615232],
						[107.375872, -6.615285],
						[107.375814, -6.615329],
						[107.375645, -6.615535],
						[107.375463, -6.615671],
						[107.375096, -6.615792],
						[107.375, -6.615803],
						[107.374988, -6.615804],
						[107.374938, -6.61581],
						[107.374777, -6.615747],
						[107.374599, -6.615678],
						[107.374457, -6.615629],
						[107.374321, -6.615581],
						[107.374191, -6.615569],
						[107.374144, -6.615565],
						[107.374046, -6.615556],
						[107.37401, -6.615559],
						[107.373948, -6.615564],
						[107.373552, -6.615659],
						[107.373175, -6.615733],
						[107.372778, -6.615677],
						[107.372655, -6.615633],
						[107.372618, -6.61562],
						[107.372561, -6.615608],
						[107.372095, -6.615514],
						[107.371626, -6.615456],
						[107.371623, -6.615461],
						[107.371334, -6.615818],
						[107.371129, -6.615747],
						[107.371147, -6.615658],
						[107.371257, -6.615411],
						[107.371257, -6.615411],
						[107.371198, -6.6154],
						[107.370246, -6.61523],
						[107.370246, -6.61523],
						[107.369659, -6.614955],
						[107.368032, -6.613825],
						[107.367295, -6.613302],
						[107.367133, -6.613187],
						[107.366315, -6.61275],
						[107.36592, -6.612607],
						[107.364746, -6.612182],
						[107.363219, -6.611695],
						[107.364611, -6.61083],
						[107.365825, -6.609758],
						[107.366273, -6.60909],
						[107.366665, -6.608506],
						[107.366991, -6.607731],
						[107.367249, -6.607118],
						[107.3675, -6.606576],
						[107.367745, -6.606046],
						[107.368252, -6.605024],
						[107.368406, -6.604712],
						[107.368442, -6.604392],
						[107.368532, -6.603602],
						[107.368778, -6.602919],
						[107.368955, -6.602776],
						[107.3691, -6.602658],
						[107.36974, -6.602362],
						[107.370127, -6.602225],
						[107.370814, -6.601983],
						[107.372067, -6.601529],
						[107.372635, -6.601328],
						[107.373512, -6.601018],
						[107.374445, -6.600845],
						[107.374866, -6.600767],
						[107.374913, -6.600766],
						[107.374999, -6.600765],
						[107.374999, -6.600757],
						[107.37547, -6.600657],
						[107.375482, -6.600654],
						[107.375922, -6.600312],
						[107.376063, -6.600174],
						[107.376237, -6.600003],
						[107.376436, -6.599808],
						[107.376659, -6.599588],
						[107.37704, -6.599297],
						[107.377099, -6.599263],
						[107.377349, -6.59912],
						[107.377731, -6.598994],
						[107.377989, -6.598941],
						[107.378055, -6.598937],
						[107.37812, -6.598934],
						[107.378348, -6.59892],
						[107.378361, -6.598919],
						[107.379043, -6.598998],
						[107.379435, -6.599058],
						[107.379964, -6.599139],
						[107.380989, -6.599423],
						[107.381108, -6.599463],
						[107.382055, -6.599779],
						[107.382659, -6.599993],
						[107.383349, -6.600238],
						[107.383566, -6.60038],
						[107.383868, -6.600576],
						[107.384391, -6.600855],
						[107.38452, -6.600924],
						[107.384591, -6.600961],
						[107.384893, -6.601118],
						[107.385122, -6.601188],
						[107.385193, -6.60121],
						[107.385193, -6.60121],
						[107.385212, -6.60121],
						[107.385483, -6.601209],
						[107.385483, -6.601209]
					]
				]
			}
		}
	]
}
